COSMOS 2419 (714)       
1 28915U 05050A   17134.60673403 -.00000021  00000-0  00000-0 0  9994
2 28915  65.4805  66.9838 0017472 349.7637 249.4002  2.13110241 88614
COSMOS 2425 (716)       
1 29670U 06062A   17134.57178709 -.00000014  00000-0  10000-3 0  9998
2 29670  65.4777 305.9950 0021362 351.7687 273.0278  2.13104824 80815
COSMOS 2426 (717)       
1 29671U 06062B   17134.82986043 -.00000012  00000-0  10000-3 0  9993
2 29671  65.4975 306.0753 0017528 157.7679 163.5940  2.13102928 80826
COSMOS 2424 (715)       
1 29672U 06062C   17134.72811061 -.00000012  00000-0  10000-3 0  9990
2 29672  65.4798 306.0008 0016944 156.1494 262.5266  2.13102160 80821
COSMOS 2433 (720)       
1 32275U 07052A   17134.68004615 -.00000021  00000-0  10000-3 0  9997
2 32275  65.4964  66.7579 0004063 295.9508 244.0398  2.13104605 74335
COSMOS 2432 (719)       
1 32276U 07052B   17134.66832238 -.00000021  00000-0  10000-3 0  9996
2 32276  65.5090  66.8287 0013639 334.8587 149.0853  2.13104031 74336
COSMOS 2434 (721)       
1 32393U 07065A   17134.66274325 -.00000013  00000-0  00000-0 0  9994
2 32393  65.0953 305.1565 0006000  98.3587 318.1119  2.13102820 73048
COSMOS 2436 (723)       
1 32395U 07065C   17134.76784054 -.00000013  00000-0  10000-3 0  9996
2 32395  65.1045 305.1991 0015532   8.2769 177.3424  2.13104220 72979
COSMOS 2443 (725)       
1 33379U 08046B   17134.34248532 -.00000024  00000-0  00000-0 0  9997
2 33379  65.4251  66.1560 0011272 183.5578 358.5823  2.13099665 67181
COSMOS 2456 (730)       
1 36111U 09070A   17134.70704668  .00000047  00000-0  00000-0 0  9993
2 36111  64.1784 184.7214 0005639 302.2336 319.2044  2.13102884 57704
COSMOS 2457 (733)       
1 36112U 09070B   17134.80539749  .00000047  00000-0  00000-0 0  9991
2 36112  64.1606 184.6382 0006274 182.9261 282.6758  2.13101541 57714
COSMOS 2458 (734)       
1 36113U 09070C   17134.67007586  .00000047  00000-0  10000-3 0  9990
2 36113  64.1664 184.6523 0001985 312.5645  97.1714  2.13102095 57713
COSMOS 2459 (731)       
1 36400U 10007A   17134.46807662 -.00000024  00000-0  10000-3 0  9997
2 36400  65.4047  65.8753 0029645 351.0734 248.6571  2.13102223 56059
COSMOS 2461 (735)       
1 36401U 10007B   17134.64053470 -.00000023  00000-0  10000-3 0  9997
2 36401  65.3978  65.8478 0006651  47.2479 235.3857  2.13102295 56057
COSMOS 2460 (732)       
1 36402U 10007C   17134.39516524 -.00000024  00000-0  10000-3 0  9995
2 36402  65.3879  65.8284 0002347 337.4454 158.2951  2.13101671 56053
COSMOS 2465 (737)       
1 37138U 10041B   17134.60024212 -.00000015  00000-0  00000-0 0  9998
2 37138  64.6942 305.1628 0035356 168.8498 244.3373  2.13104168 52139
COSMOS 2464 (736)       
1 37139U 10041C   17134.80352051 -.00000013  00000-0  00000-0 0  9994
2 37139  64.6997 305.1559 0024035  17.2114  15.0020  2.13102579 52133
COSMOS 2471 (701K)      
1 37372U 11009A   17134.71591030 -.00000023  00000-0  00000-0 0  9991
2 37372  65.3871  65.7659 0007970 246.3353 270.9083  2.13107588 48333
COSMOS 2474 (742)       
1 37829U 11055A   17134.67482458  .00000047  00000-0  00000-0 0  9992
2 37829  64.5027 185.2734 0009885 252.4404 204.2208  2.13101933 43701
COSMOS 2476 (744)       
1 37867U 11064A   17134.66289429  .00000047  00000-0  00000-0 0  9996
2 37867  64.4825 185.3459 0019074 245.7467 247.6959  2.13102009 43055
COSMOS 2477 (745)       
1 37868U 11064B   17134.85114628  .00000047  00000-0  00000-0 0  9996
2 37868  64.4909 185.3837 0016855 247.2496 209.7479  2.13101785 43014
COSMOS 2475 (743)       
1 37869U 11064C   17134.64069841  .00000047  00000-0  00000-0 0  9990
2 37869  64.4987 185.3825 0021925 271.5594 340.3613  2.13101936 43011
COSMOS 2485 (747)       
1 39155U 13019A   17134.77982639  .00000047  00000-0  00000-0 0  9995
2 39155  64.6519 185.3639 0019358 240.8638  27.3134  2.13101980 31524
COSMOS 2492 (754)       
1 39620U 14012A   17134.77964322 -.00000022  00000-0  10000-3 0  9993
2 39620  65.2781  65.7570 0017163 331.6525 330.4718  2.13103380 24478
COSMOS 2500 (755)       
1 40001U 14032A   17134.67135068 -.00000023  00000-0  00000-0 0  9993
2 40001  65.2179  65.7609 0004994 229.5399 212.6035  2.13102804 22694
COSMOS 2501 (702K)      
1 40315U 14075A   17134.75960471 -.00000015  00000-0  00000-0 0  9992
2 40315  64.4269 306.5108 0013950 204.3632 111.9799  2.13098480 19098
COSMOS 2514 (751)       
1 41330U 16008A   17134.53801549 -.00000024  00000-0  00000-0 0  9994
2 41330  65.0193  65.9179 0008387 230.2923 289.4682  2.13103371  9853
COSMOS 2516 (753)       
1 41554U 16032A   17134.29713061 -.00000018  00000-0  00000-0 0  9996
2 41554  64.6488 306.2820 0009973 214.4171  13.3247  2.13101490  7453
